OBJECT_NAME,OBJECT_ID,EPOCH,MEAN_MOTION,ECCENTRICITY,INCLINATION,RA_OF_ASC_NODE,ARG_OF_PERICENTER,MEAN_ANOMALY,EPHEMERIS_TYPE,CLASSIFICATION_TYPE,NORAD_CAT_ID,ELEMENT_SET_NO,REV_AT_EPOCH,BSTAR,MEAN_MOTION_DOT,MEAN_MOTION_DDOT
STARLINK-34301,2025-126F,2026-07-11T03:06:08.335296,14.98340184,.0002812,70.0007,83.1532,272.2133,87.8704,0,U,64349,999,5917,-.22125E-4,-.357E-5,0
STARLINK-34425,2025-126G,2026-07-11T03:36:10.538208,14.98351259,.000215,70.0025,83.2225,264.8509,95.2405,0,U,64350,999,5917,.26692E-3,.3095E-4,0
STARLINK-34389,2025-126H,2026-07-11T03:18:24.034752,14.98339131,.0002823,70.0015,83.1779,275.0591,85.0246,0,U,64351,999,5917,.33809E-3,.3944E-4,0
STARLINK-34385,2025-126J,2026-07-11T02:18:05.544000,14.98342093,.0003112,70.0002,83.4403,273.1549,86.9254,0,U,64352,999,5916,.65321E-4,.687E-5,0
STARLINK-34431,2025-126K,2026-07-10T02:58:20.947584,14.98331505,.00024893,70.0005,85.6666,273.8951,86.1924,0,U,64353,999,5902,.37818635E-4,.358E-5,0
STARLINK-34473,2025-126L,2026-07-11T03:18:09.708768,14.98349334,.0002731,70.0017,83.1831,261.8999,98.1851,0,U,64354,999,5917,.26317E-3,.305E-4,0
STARLINK-34270,2025-126M,2026-07-11T03:24:12.362400,14.98337484,.0002709,70.0023,83.1990,295.6916,64.3963,0,U,64355,999,6037,.32249E-3,.3758E-4,0
STARLINK-34397,2025-126N,2026-07-11T02:24:06.353856,14.98348537,.000325,70.0006,83.4511,263.0700,97.0090,0,U,64356,999,5916,.24185E-3,.2795E-4,0
STARLINK-34454,2025-126P,2026-07-11T02:30:21.253824,14.98338424,.0002769,70.0011,83.4663,268.6537,91.4305,0,U,64357,999,5916,-.20209E-4,-.334E-5,0
STARLINK-34436,2025-126Q,2026-07-10T02:46:20.035488,14.98352022,.00024783,70.0007,85.6302,270.2387,89.8488,0,U,64358,999,5902,.31199886E-3,.3634E-4,0
STARLINK-34291,2025-126R,2026-07-11T03:12:23.135040,14.98350784,.0001946,70.0019,83.1611,265.0181,95.0756,0,U,64359,999,5917,.26067E-3,.302E-4,0
STARLINK-34458,2025-126S,2026-07-11T03:24:24.939648,14.98339968,.000226,70.0034,83.1946,282.9418,77.1489,0,U,64360,999,5917,.522E-4,.53E-5,0
STARLINK-34243,2025-126T,2026-07-11T03:30:11.091744,14.98345751,.000242,70.0020,83.2123,272.7667,87.3215,0,U,64361,999,5917,.1726E-3,.1968E-4,0
STARLINK-34335,2025-126U,2026-07-11T02:54:07.031808,14.98337543,.000283,69.9999,83.1233,270.8867,89.1968,0,U,64362,999,5917,-.91474E-4,-.1184E-4,0
STARLINK-34408,2025-126V,2026-07-11T02:42:05.906304,14.98337697,.0002434,70.0008,83.0943,276.3382,83.7499,0,U,64363,999,5917,-.7194E-4,-.951E-5,0
STARLINK-34476,2025-126W,2026-07-11T03:12:08.847936,14.98341627,.0002835,70.0004,83.1664,259.0275,101.0565,0,U,64364,999,5917,-.57251E-4,-.776E-5,0
STARLINK-34479,2025-126X,2026-07-11T02:36:07.822368,14.98327194,.0003725,69.9988,83.4791,269.8193,90.2539,0,U,64365,999,5916,.26013E-3,.3012E-4,0
STARLINK-34484,2025-126Y,2026-07-10T02:46:05.909088,14.98351852,.00027097,70.0007,85.6297,262.7557,97.3294,0,U,64366,999,6023,.38571679E-3,.4515E-4,0
STARLINK-34483,2025-126Z,2026-07-10T02:52:20.603424,14.98351494,.00024567,70.0008,85.6437,269.8819,90.2058,0,U,64367,999,5902,.29614829E-3,.3444E-4,0
STARLINK-34457,2025-126AA,2026-07-11T02:12:04.391136,14.98327737,.0003111,70.0006,83.4205,265.3988,94.6816,0,U,64368,999,5916,-.41657E-3,-.506E-4,0
STARLINK-34444,2025-126AB,2026-07-10T15:05:23.673408,14.98335265,.0002623,70.0004,84.6130,267.9192,92.1666,0,U,64369,999,5909,.2462E-3,.2846E-4,0
STARLINK-11732 [DTC],2025-127A,2026-07-11T01:17:02.755104,15.70857711,.0003272,42.9986,61.0044,252.9540,107.0969,0,U,64370,999,6290,.10821E-2,.140909E-2,0
STARLINK-11731 [DTC],2025-127B,2026-07-11T00:08:26.409408,15.70997770,.0001703,43.0021,61.5115,295.2543,64.8148,0,U,64371,999,6289,.15048E-2,.198634E-2,0
STARLINK-11746 [DTC],2025-127C,2026-07-10T08:00:03.000384,15.70925859,.00016353,43.0012,65.1172,271.0810,61.7964,0,U,64372,999,568,-.13800142E-2,-.174495E-2,0
STARLINK-11748 [DTC],2025-127D,2026-07-11T00:25:02.379360,15.71016748,.0002013,42.9996,61.6047,287.0273,73.0374,0,U,64373,999,6289,.11788E-2,.154807E-2,0
STARLINK-11739 [DTC],2025-127E,2026-07-11T00:31:11.125056,15.70924828,.0001864,43.0015,60.7445,282.3203,77.7456,0,U,64374,999,6290,.85531E-3,.111176E-2,0
STARLINK-11738 [DTC],2025-127F,2026-07-10T01:30:19.630080,15.70877892,.00019318,43.0016,67.3440,259.1766,100.8885,0,U,64375,999,6274,.15410396E-2,.202504E-2,0
STARLINK-11745 [DTC],2025-127G,2026-07-10T23:37:50.246976,15.70881787,.0003794,43.0048,61.3330,241.4892,118.5593,0,U,64376,999,6289,.93982E-3,.122175E-2,0
STARLINK-11742 [DTC],2025-127H,2026-07-10T02:38:56.590080,15.70874853,.00024971,43.0026,66.8282,253.7314,106.3279,0,U,64377,999,6275,.10610325E-2,.138193E-2,0
STARLINK-11711 [DTC],2025-127J,2026-07-10T00:21:30.898944,15.70869453,.00023428,43.0025,66.9582,260.7237,99.3366,0,U,64378,999,6285,.11459635E-2,.149458E-2,0
