STARLINK-34301          
1 64349U 25126F   26192.12926314 -.00000357  00000+0 -22125-4 0  9992
2 64349  70.0007  83.1532 0002812 272.2133  87.8704 14.98340184 59175
STARLINK-34425          
1 64350U 25126G   26192.15012197  .00003095  00000+0  26692-3 0  9994
2 64350  70.0025  83.2225 0002150 264.8509  95.2405 14.98351259 59172
STARLINK-34389          
1 64351U 25126H   26192.13777818  .00003944  00000+0  33809-3 0  9992
2 64351  70.0015  83.1779 0002823 275.0591  85.0246 14.98339131 59172
STARLINK-34385          
1 64352U 25126J   26192.09589750  .00000687  00000+0  65321-4 0  9990
2 64352  70.0002  83.4403 0003112 273.1549  86.9254 14.98342093 59169
STARLINK-34431          
1 64353U 25126K   26191.12385356  .00000358  00000+0  37819-4 0  9996
2 64353  70.0005  85.6666 0002489 273.8951  86.1924 14.98331505 59025
STARLINK-34473          
1 64354U 25126L   26192.13761237  .00003050  00000+0  26317-3 0  9997
2 64354  70.0017  83.1831 0002731 261.8999  98.1851 14.98349334 59172
STARLINK-34270          
1 64355U 25126M   26192.14180975  .00003758  00000+0  32249-3 0  9999
2 64355  70.0023  83.1990 0002709 295.6916  64.3963 14.98337484 60371
STARLINK-34397          
1 64356U 25126N   26192.10007354  .00002795  00000+0  24185-3 0  9995
2 64356  70.0006  83.4511 0003250 263.0700  97.0090 14.98348537 59167
STARLINK-34454          
1 64357U 25126P   26192.10441266 -.00000334  00000+0 -20209-4 0  9993
2 64357  70.0011  83.4663 0002769 268.6537  91.4305 14.98338424 59166
STARLINK-34436          
1 64358U 25126Q   26191.11550967  .00003634  00000+0  31200-3 0  9999
2 64358  70.0007  85.6302 0002478 270.2387  89.8488 14.98352022 59023
STARLINK-34291          
1 64359U 25126R   26192.13360110  .00003020  00000+0  26067-3 0  9996
2 64359  70.0019  83.1611 0001946 265.0181  95.0756 14.98350784 59172
STARLINK-34458          
1 64360U 25126S   26192.14195532  .00000530  00000+0  52200-4 0  9995
2 64360  70.0034  83.1946 0002260 282.9418  77.1489 14.98339968 59178
STARLINK-34243          
1 64361U 25126T   26192.14596171  .00001968  00000+0  17260-3 0  9992
2 64361  70.0020  83.2123 0002420 272.7667  87.3215 14.98345751 59170
STARLINK-34335          
1 64362U 25126U   26192.12091472 -.00001184  00000+0 -91474-4 0  9997
2 64362  69.9999  83.1233 0002830 270.8867  89.1968 14.98337543 59175
STARLINK-34408          
1 64363U 25126V   26192.11256836 -.00000951  00000+0 -71940-4 0  9991
2 64363  70.0008  83.0943 0002434 276.3382  83.7499 14.98337697 59179
STARLINK-34476          
1 64364U 25126W   26192.13343574 -.00000776  00000+0 -57251-4 0  9994
2 64364  70.0004  83.1664 0002835 259.0275 101.0565 14.98341627 59177
STARLINK-34479          
1 64365U 25126X   26192.10842387  .00003012  00000+0  26013-3 0  9993
2 64365  69.9988  83.4791 0003725 269.8193  90.2539 14.98327194 59169
STARLINK-34484          
1 64366U 25126Y   26191.11534617  .00004515  00000+0  38572-3 0  9990
2 64366  70.0007  85.6297 0002709 262.7557  97.3294 14.98351852 60231
STARLINK-34483          
1 64367U 25126Z   26191.11968291  .00003444  00000+0  29615-3 0  9998
2 64367  70.0008  85.6437 0002456 269.8819  90.2058 14.98351494 59024
STARLINK-34457          
1 64368U 25126AA  26192.09171749 -.00005060  00000+0 -41657-3 0  9999
2 64368  70.0006  83.4205 0003111 265.3988  94.6816 14.98327737 59167
STARLINK-34444          
1 64369U 25126AB  26191.62874622  .00002846  00000+0  24620-3 0  9996
2 64369  70.0004  84.6130 0002623 267.9192  92.1666 14.98335265 59091
STARLINK-11732 [DTC]    
1 64370U 25127A   26192.05350411  .00140909  00000+0  10821-2 0  9992
2 64370  42.9986  61.0044 0003272 252.9540 107.0969 15.70857711 62907
STARLINK-11731 [DTC]    
1 64371U 25127B   26192.00586122  .00198634  00000+0  15048-2 0  9992
2 64371  43.0021  61.5115 0001703 295.2543  64.8148 15.70997770 62891
STARLINK-11746 [DTC]    
1 64372U 25127C   26191.33336806 -.00174495  00000+0 -13800-2 0  9995
2 64372  43.0012  65.1172 0001635 271.0810  61.7964 15.70925859  5683
STARLINK-11748 [DTC]    
1 64373U 25127D   26192.01738865  .00154807  00000+0  11788-2 0  9999
2 64373  42.9996  61.6047 0002013 287.0273  73.0374 15.71016748 62892
STARLINK-11739 [DTC]    
1 64374U 25127E   26192.02165654  .00111176  00000+0  85531-3 0  9991
2 64374  43.0015  60.7445 0001864 282.3203  77.7456 15.70924828 62903
STARLINK-11738 [DTC]    
1 64375U 25127F   26191.06272720  .00202504  00000+0  15410-2 0  9992
2 64375  43.0016  67.3440 0001931 259.1766 100.8885 15.70877892 62748
STARLINK-11745 [DTC]    
1 64376U 25127G   26191.98460934  .00122175  00000+0  93982-3 0  9996
2 64376  43.0048  61.3330 0003794 241.4892 118.5593 15.70881787 62895
STARLINK-11742 [DTC]    
1 64377U 25127H   26191.11037720  .00138193  00000+0  10610-2 0  9998
2 64377  43.0026  66.8282 0002497 253.7314 106.3279 15.70874853 62759
STARLINK-11711 [DTC]    
1 64378U 25127J   26191.01494096  .00149458  00000+0  11460-2 0  9991
2 64378  43.0025  66.9582 0002342 260.7237  99.3366 15.70869453 62853
